[
    {
        "Altitude(m)": 562976.3758161638,
        "Argument of Periapsis(deg)": 0.013245982221427002,
        "Eccentricity": 0.0,
        "Inclination(deg)": 53.0,
        "Latitude(deg)": -31.23191749418029,
        "Longitude(deg)": -59.54759630407372,
        "Mean Anomaly(deg)": -139.81681426484488,
        "RAAN(deg)": 194.98028673705605,
        "Satellite Name": "Starlink Shell 1 870",
        "Satellite Number": 870,
        "Semi-Major Axis(m)": 6931778.249405717,
        "Time(s)": 380
    },
    {
        "Altitude(m)": 563151.6840355367,
        "Argument of Periapsis(deg)": 0.013594560700938237,
        "Eccentricity": 0.0,
        "Inclination(deg)": 53.0,
        "Latitude(deg)": -31.677719957919454,
        "Longitude(deg)": -59.073276920199,
        "Mean Anomaly(deg)": -139.18998306128813,
        "RAAN(deg)": 194.97976796697859,
        "Satellite Name": "Starlink Shell 1 870",
        "Satellite Number": 870,
        "Semi-Major Axis(m)": 6931778.249405717,
        "Time(s)": 390
    },
    {
        "Altitude(m)": 563326.9086384026,
        "Argument of Periapsis(deg)": 0.013943139180449475,
        "Eccentricity": 0.0,
        "Inclination(deg)": 53.0,
        "Latitude(deg)": -32.12137506465041,
        "Longitude(deg)": -58.59403849663661,
        "Mean Anomaly(deg)": -138.56315185773138,
        "RAAN(deg)": 194.9792491969011,
        "Satellite Name": "Starlink Shell 1 870",
        "Satellite Number": 870,
        "Semi-Major Axis(m)": 6931778.249405717,
        "Time(s)": 400
    },
    {
        "Altitude(m)": 563501.983377129,
        "Argument of Periapsis(deg)": 0.014291717659960712,
        "Eccentricity": 0.0,
        "Inclination(deg)": 53.0,
        "Latitude(deg)": -32.56282613712488,
        "Longitude(deg)": -58.10977120542956,
        "Mean Anomaly(deg)": -137.9363206541747,
        "RAAN(deg)": 194.97873042682363,
        "Satellite Name": "Starlink Shell 1 870",
        "Satellite Number": 870,
        "Semi-Major Axis(m)": 6931778.249405717,
        "Time(s)": 410
    },
    {
        "Altitude(m)": 563676.8419248237,
        "Argument of Periapsis(deg)": 0.014640296139471948,
        "Eccentricity": 0.0,
        "Inclination(deg)": 53.0,
        "Latitude(deg)": -33.00201519742892,
        "Longitude(deg)": -57.62036457312241,
        "Mean Anomaly(deg)": -137.30948945061797,
        "RAAN(deg)": 194.97821165674617,
        "Satellite Name": "Starlink Shell 1 870",
        "Satellite Number": 870,
        "Semi-Major Axis(m)": 6931778.249405717,
        "Time(s)": 420
    },
    {
        "Altitude(m)": 563851.4179050347,
        "Argument of Periapsis(deg)": 0.014988874618983185,
        "Eccentricity": 0.0,
        "Inclination(deg)": 53.0,
        "Latitude(deg)": -33.438882934587845,
        "Longitude(deg)": -57.125707017038955,
        "Mean Anomaly(deg)": -136.68265824706125,
        "RAAN(deg)": 194.97769288666868,
        "Satellite Name": "Starlink Shell 1 870",
        "Satellite Number": 870,
        "Semi-Major Axis(m)": 6931778.249405717,
        "Time(s)": 430
    },
    {
        "Altitude(m)": 564025.6449214607,
        "Argument of Periapsis(deg)": 0.015337453098494424,
        "Eccentricity": 0.0,
        "Inclination(deg)": 53.0,
        "Latitude(deg)": -33.87336867213553,
        "Longitude(deg)": -56.62568538769544,
        "Mean Anomaly(deg)": -136.0558270435045,
        "RAAN(deg)": 194.97717411659121,
        "Satellite Name": "Starlink Shell 1 870",
        "Satellite Number": 870,
        "Semi-Major Axis(m)": 6931778.249405717,
        "Time(s)": 440
    },
    {
        "Altitude(m)": 564199.4565876455,
        "Argument of Periapsis(deg)": 0.01568603157800566,
        "Eccentricity": 0.0,
        "Inclination(deg)": 53.0,
        "Latitude(deg)": -34.30541033572511,
        "Longitude(deg)": -56.12018603065213,
        "Mean Anomaly(deg)": -135.42899583994787,
        "RAAN(deg)": 194.97665534651372,
        "Satellite Name": "Starlink Shell 1 870",
        "Satellite Number": 870,
        "Semi-Major Axis(m)": 6931778.249405717,
        "Time(s)": 450
    },
    {
        "Altitude(m)": 564372.7865566663,
        "Argument of Periapsis(deg)": 0.0160346100575169,
        "Eccentricity": 0.0,
        "Inclination(deg)": 53.0,
        "Latitude(deg)": -34.73494442086227,
        "Longitude(deg)": -55.609094342504285,
        "Mean Anomaly(deg)": -134.8021646363911,
        "RAAN(deg)": 194.97613657643623,
        "Satellite Name": "Starlink Shell 1 870",
        "Satellite Number": 870,
        "Semi-Major Axis(m)": 6931778.249405717,
        "Time(s)": 460
    },
    {
        "Altitude(m)": 564545.56855079,
        "Argument of Periapsis(deg)": 0.016383188537028134,
        "Eccentricity": 0.0,
        "Inclination(deg)": 53.0,
        "Latitude(deg)": -35.161905960852614,
        "Longitude(deg)": -55.09229433435811,
        "Mean Anomaly(deg)": -134.17533343283446,
        "RAAN(deg)": 194.97561780635877,
        "Satellite Name": "Starlink Shell 1 870",
        "Satellite Number": 870,
        "Semi-Major Axis(m)": 6931778.249405717,
        "Time(s)": 470
    },
    {
        "Altitude(m)": 564717.736391088,
        "Argument of Periapsis(deg)": 0.01673176701653937,
        "Eccentricity": 0.0,
        "Inclination(deg)": 53.0,
        "Latitude(deg)": -35.58622849506707,
        "Longitude(deg)": -54.56966971615344,
        "Mean Anomaly(deg)": -133.5485022292777,
        "RAAN(deg)": 194.9750990362813,
        "Satellite Name": "Starlink Shell 1 870",
        "Satellite Number": 870,
        "Semi-Major Axis(m)": 6931778.249405717,
        "Time(s)": 480
    },
    {
        "Altitude(m)": 564889.224026972,
        "Argument of Periapsis(deg)": 0.017080345496050607,
        "Eccentricity": 0.0,
        "Inclination(deg)": 53.0,
        "Latitude(deg)": -36.00784403763097,
        "Longitude(deg)": -54.04110347659251,
        "Mean Anomaly(deg)": -132.92167102572097,
        "RAAN(deg)": 194.97458026620382,
        "Satellite Name": "Starlink Shell 1 870",
        "Satellite Number": 870,
        "Semi-Major Axis(m)": 6931778.249405717,
        "Time(s)": 490
    },
    {
        "Altitude(m)": 565059.9655656993,
        "Argument of Periapsis(deg)": 0.017428923975561842,
        "Eccentricity": 0.0,
        "Inclination(deg)": 53.0,
        "Latitude(deg)": -36.42668304666031,
        "Longitude(deg)": -53.506477472074685,
        "Mean Anomaly(deg)": -132.29483982216428,
        "RAAN(deg)": 194.97406149612635,
        "Satellite Name": "Starlink Shell 1 870",
        "Satellite Number": 870,
        "Semi-Major Axis(m)": 6931778.249405717,
        "Time(s)": 500
    },
    {
        "Altitude(m)": 565229.8953017375,
        "Argument of Periapsis(deg)": 0.01777750245507308,
        "Eccentricity": 0.0,
        "Inclination(deg)": 53.0,
        "Latitude(deg)": -36.84267439417702,
        "Longitude(deg)": -52.965673538053245,
        "Mean Anomaly(deg)": -131.66800861860753,
        "RAAN(deg)": 194.97354272604892,
        "Satellite Name": "Starlink Shell 1 870",
        "Satellite Number": 870,
        "Semi-Major Axis(m)": 6931778.249405717,
        "Time(s)": 510
    },
    {
        "Altitude(m)": 565398.9477460862,
        "Argument of Periapsis(deg)": 0.018126080934584315,
        "Eccentricity": 0.0,
        "Inclination(deg)": 53.0,
        "Latitude(deg)": -37.25574533684251,
        "Longitude(deg)": -52.418573097624034,
        "Mean Anomaly(deg)": -131.04117741505084,
        "RAAN(deg)": 194.97302395597143,
        "Satellite Name": "Starlink Shell 1 870",
        "Satellite Number": 870,
        "Semi-Major Axis(m)": 6931778.249405717,
        "Time(s)": 520
    },
    {
        "Altitude(m)": 565567.0576554459,
        "Argument of Periapsis(deg)": 0.018474659414095554,
        "Eccentricity": 0.0,
        "Inclination(deg)": 53.0,
        "Latitude(deg)": -37.66582148766638,
        "Longitude(deg)": -51.86505678078953,
        "Mean Anomaly(deg)": -130.41434621149412,
        "RAAN(deg)": 194.97250518589397,
        "Satellite Name": "Starlink Shell 1 870",
        "Satellite Number": 870,
        "Semi-Major Axis(m)": 6931778.249405717,
        "Time(s)": 530
    },
    {
        "Altitude(m)": 565734.1600612731,
        "Argument of Periapsis(deg)": 0.018823237893606792,
        "Eccentricity": 0.0,
        "Inclination(deg)": 53.0,
        "Latitude(deg)": -38.072826788857796,
        "Longitude(deg)": -51.30500556785821,
        "Mean Anomaly(deg)": -129.78751500793743,
        "RAAN(deg)": 194.97198641581647,
        "Satellite Name": "Starlink Shell 1 870",
        "Satellite Number": 870,
        "Semi-Major Axis(m)": 6931778.249405717,
        "Time(s)": 540
    },
    {
        "Altitude(m)": 565900.1902987093,
        "Argument of Periapsis(deg)": 0.019171816373118027,
        "Eccentricity": 0.0,
        "Inclination(deg)": 53.0,
        "Latitude(deg)": -38.47668348599702,
        "Longitude(deg)": -50.73830043181954,
        "Mean Anomaly(deg)": -129.16068380438062,
        "RAAN(deg)": 194.971467645739,
        "Satellite Name": "Starlink Shell 1 870",
        "Satellite Number": 870,
        "Semi-Major Axis(m)": 6931778.249405717,
        "Time(s)": 550
    },
    {
        "Altitude(m)": 566065.0840353296,
        "Argument of Periapsis(deg)": 0.019520394852629266,
        "Eccentricity": 0.0,
        "Inclination(deg)": 53.0,
        "Latitude(deg)": -38.87731210372153,
        "Longitude(deg)": -50.16482199316784,
        "Mean Anomaly(deg)": -128.53385260082393,
        "RAAN(deg)": 194.97094887566152,
        "Satellite Name": "Starlink Shell 1 870",
        "Satellite Number": 870,
        "Semi-Major Axis(m)": 6931778.249405717,
        "Time(s)": 560
    }
]